STARLINK-1726
1 26362C 20062AQ  21325.11700588  .00024748  00000-0  16581-2 0  3255
2 26362  53.0519 177.7008 0001984  70.9679 147.6574 15.06373482    10
